0 DELTA 1 DEB
1 07025U 73086R   13282.48232527  .00000044  00000-0  13099-2 0   901
2 07025 101.9129 256.2713 0466956 331.9877 144.3215 11.54298417682861
0 DELTA 1 DEB
1 07025U 73086R   13286.88686619 -.00000003  00000-0  53820-3 0   929
2 07025 101.9135 259.9343 0466917 324.9970 087.2856 11.54299267683377
0 DELTA 1 DEB
1 07025U 73086R   13289.42565696 -.00000014  00000-0  35158-3 0   930
2 07025 101.9143 262.0455 0466879 320.9674 197.1756 11.54299493683662
0 DELTA 1 DEB
1 07025U 73086R   13292.17612426  .00000003  00000-0  63566-3 0   942
2 07025 101.9149 264.3327 0466823 316.6023 106.6855 11.54299356683988
0 DELTA 1 DEB
1 07025U 73086R   13294.52986759  .00000021  00000-0  92787-3 0   954
2 07025 101.9152 266.2904 0466793 312.8676 167.6158 11.54299414684251
